{
  "type": "FeatureCollection",
  "features": [
    {
      "type": "Feature",
      "properties": {
        "norad_id": 66890,
        "name": "STARLINK-35885",
        "group": "last-30-days",
        "lat": 13.802358457654178,
        "lon": 45.96658111208848,
        "alt_km": 345.53436381401116,
        "timestamp": "2025-12-20T09:36:00.354234+00:00",
        "meta_object_name": "STARLINK-35885",
        "meta_object_id": "2025-283N",
        "meta_epoch": "2025-12-20T04:00:00.999072",
        "meta_mean_motion": 15.74226339,
        "meta_eccentricity": 0.0001129,
        "meta_inclination": 53.1577,
        "meta_ra_of_asc_node": 36.5104,
        "meta_arg_of_pericenter": 80.0641,
        "meta_mean_anomaly": 54.3281,
        "meta_ephemeris_type": 0,
        "meta_classification_type": "U",
        "meta_norad_cat_id": 66890,
        "meta_element_set_no": 999,
        "meta_rev_at_epoch": 362,
        "meta_bstar": -0.00046628,
        "meta_mean_motion_dot": -0.00068474,
        "meta_mean_motion_ddot": 0,
        "tle_line1": "1 66890U 25283N   25354.16667823 -.00068474  00000+0 -46628-3 0  9996",
        "tle_line2": "2 66890  53.1577  36.5104 0001129  80.0641  54.3281 15.74226339  3626"
      },
      "geometry": {
        "type": "Point",
        "coordinates": [
          45.96658111208848,
          13.802358457654178
        ]
      }
    },
    {
      "type": "Feature",
      "properties": {
        "norad_id": 66891,
        "name": "STARLINK-35855",
        "group": "last-30-days",
        "lat": 15.281644241986877,
        "lon": 47.16916689747762,
        "alt_km": 345.55491633029123,
        "timestamp": "2025-12-20T09:36:00.354244+00:00",
        "meta_object_name": "STARLINK-35855",
        "meta_object_id": "2025-283P",
        "meta_epoch": "2025-12-20T04:00:00.999072",
        "meta_mean_motion": 15.74198383,
        "meta_eccentricity": 0.0001355,
        "meta_inclination": 53.1574,
        "meta_ra_of_asc_node": 36.5059,
        "meta_arg_of_pericenter": 106.5315,
        "meta_mean_anomaly": 29.7522,
        "meta_ephemeris_type": 0,
        "meta_classification_type": "U",
        "meta_norad_cat_id": 66891,
        "meta_element_set_no": 999,
        "meta_rev_at_epoch": 362,
        "meta_bstar": 0.00022177,
        "meta_mean_motion_dot": 0.00031986,
        "meta_mean_motion_ddot": 0,
        "tle_line1": "1 66891U 25283P   25354.16667823  .00031986  00000+0  22177-3 0  9996",
        "tle_line2": "2 66891  53.1574  36.5059 0001355 106.5315  29.7522 15.74198383  3627"
      },
      "geometry": {
        "type": "Point",
        "coordinates": [
          47.16916689747762,
          15.281644241986877
        ]
      }
    },
    {
      "type": "Feature",
      "properties": {
        "norad_id": 66892,
        "name": "STARLINK-35883",
        "group": "last-30-days",
        "lat": 16.804853914391934,
        "lon": 48.43196526846785,
        "alt_km": 345.09812316570606,
        "timestamp": "2025-12-20T09:36:00.354259+00:00",
        "meta_object_name": "STARLINK-35883",
        "meta_object_id": "2025-283Q",
        "meta_epoch": "2025-12-20T04:00:00.999072",
        "meta_mean_motion": 15.74194834,
        "meta_eccentricity": 0.0001176,
        "meta_inclination": 53.1574,
        "meta_ra_of_asc_node": 36.5022,
        "meta_arg_of_pericenter": 85.5611,
        "meta_mean_anomaly": 52.6808,
        "meta_ephemeris_type": 0,
        "meta_classification_type": "U",
        "meta_norad_cat_id": 66892,
        "meta_element_set_no": 999,
        "meta_rev_at_epoch": 356,
        "meta_bstar": -0.00013496,
        "meta_mean_motion_dot": -0.00020351,
        "meta_mean_motion_ddot": 0,
        "tle_line1": "1 66892U 25283Q   25354.16667823 -.00020351  00000+0 -13496-3 0  9997",
        "tle_line2": "2 66892  53.1574  36.5022 0001176  85.5611  52.6808 15.74194834  3566"
      },
      "geometry": {
        "type": "Point",
        "coordinates": [
          48.43196526846785,
          16.804853914391934
        ]
      }
    },
    {
      "type": "Feature",
      "properties": {
        "norad_id": 66893,
        "name": "STARLINK-36033",
        "group": "last-30-days",
        "lat": 18.300897897323395,
        "lon": 49.69824203498006,
        "alt_km": 344.9512926592315,
        "timestamp": "2025-12-20T09:36:00.354270+00:00",
        "meta_object_name": "STARLINK-36033",
        "meta_object_id": "2025-283R",
        "meta_epoch": "2025-12-20T04:00:00.999072",
        "meta_mean_motion": 15.74224616,
        "meta_eccentricity": 8.12e-05,
        "meta_inclination": 53.1573,
        "meta_ra_of_asc_node": 36.4981,
        "meta_arg_of_pericenter": 86.6528,
        "meta_mean_anomaly": 53.4946,
        "meta_ephemeris_type": 0,
        "meta_classification_type": "U",
        "meta_norad_cat_id": 66893,
        "meta_element_set_no": 999,
        "meta_rev_at_epoch": 362,
        "meta_bstar": -0.0005204,
        "meta_mean_motion_dot": -0.00076271,
        "meta_mean_motion_ddot": 0,
        "tle_line1": "1 66893U 25283R   25354.16667823 -.00076271  00000+0 -52040-3 0  9998",
        "tle_line2": "2 66893  53.1573  36.4981 0000812  86.6528  53.4946 15.74224616  3625"
      },
      "geometry": {
        "type": "Point",
        "coordinates": [
          49.69824203498006,
          18.300897897323395
        ]
      }
    },
    {
      "type": "Feature",
      "properties": {
        "norad_id": 66894,
        "name": "STARLINK-35718",
        "group": "last-30-days",
        "lat": 19.78239107586368,
        "lon": 50.98163038025136,
        "alt_km": 344.6399548488407,
        "timestamp": "2025-12-20T09:36:00.354282+00:00",
        "meta_object_name": "STARLINK-35718",
        "meta_object_id": "2025-283S",
        "meta_epoch": "2025-12-20T04:00:00.999072",
        "meta_mean_motion": 15.74215928,
        "meta_eccentricity": 0.0001368,
        "meta_inclination": 53.1576,
        "meta_ra_of_asc_node": 36.4945,
        "meta_arg_of_pericenter": 94.3488,
        "meta_mean_anomaly": 47.7242,
        "meta_ephemeris_type": 0,
        "meta_classification_type": "U",
        "meta_norad_cat_id": 66894,
        "meta_element_set_no": 999,
        "meta_rev_at_epoch": 362,
        "meta_bstar": -0.00039988,
        "meta_mean_motion_dot": -0.00058855,
        "meta_mean_motion_ddot": 0,
        "tle_line1": "1 66894U 25283S   25354.16667823 -.00058855  00000+0 -39988-3 0  9993",
        "tle_line2": "2 66894  53.1576  36.4945 0001368  94.3488  47.7242 15.74215928  3628"
      },
      "geometry": {
        "type": "Point",
        "coordinates": [
          50.98163038025136,
          19.78239107586368
        ]
      }
    },
    {
      "type": "Feature",
      "properties": {
        "norad_id": 66895,
        "name": "STARLINK-35971",
        "group": "last-30-days",
        "lat": 22.7149398452994,
        "lon": 53.61990135356617,
        "alt_km": 344.01839771595405,
        "timestamp": "2025-12-20T09:36:00.354292+00:00",
        "meta_object_name": "STARLINK-35971",
        "meta_object_id": "2025-283T",
        "meta_epoch": "2025-12-20T04:00:00.999072",
        "meta_mean_motion": 15.74198626,
        "meta_eccentricity": 0.0001351,
        "meta_inclination": 53.1575,
        "meta_ra_of_asc_node": 36.4851,
        "meta_arg_of_pericenter": 88.174,
        "meta_mean_anomaly": 57.7324,
        "meta_ephemeris_type": 0,
        "meta_classification_type": "U",
        "meta_norad_cat_id": 66895,
        "meta_element_set_no": 999,
        "meta_rev_at_epoch": 362,
        "meta_bstar": -9.3826e-05,
        "meta_mean_motion_dot": -0.00014353,
        "meta_mean_motion_ddot": 0,
        "tle_line1": "1 66895U 25283T   25354.16667823 -.00014353  00000+0 -93826-4 0  9991",
        "tle_line2": "2 66895  53.1575  36.4851 0001351  88.1740  57.7324 15.74198626  3625"
      },
      "geometry": {
        "type": "Point",
        "coordinates": [
          53.61990135356617,
          22.7149398452994
        ]
      }
    },
    {
      "type": "Feature",
      "properties": {
        "norad_id": 66896,
        "name": "STARLINK-35791",
        "group": "last-30-days",
        "lat": 21.261038311760874,
        "lon": 52.293760434174345,
        "alt_km": 344.5315153756974,
        "timestamp": "2025-12-20T09:36:00.354305+00:00",
        "meta_object_name": "STARLINK-35791",
        "meta_object_id": "2025-283U",
        "meta_epoch": "2025-12-20T04:00:00.999072",
        "meta_mean_motion": 15.74227386,
        "meta_eccentricity": 0.0001148,
        "meta_inclination": 53.1574,
        "meta_ra_of_asc_node": 36.4894,
        "meta_arg_of_pericenter": 103.2878,
        "meta_mean_anomaly": 40.7004,
        "meta_ephemeris_type": 0,
        "meta_classification_type": "U",
        "meta_norad_cat_id": 66896,
        "meta_element_set_no": 999,
        "meta_rev_at_epoch": 362,
        "meta_bstar": -0.00049743,
        "meta_mean_motion_dot": -0.00072971,
        "meta_mean_motion_ddot": 0,
        "tle_line1": "1 66896U 25283U   25354.16667823 -.00072971  00000+0 -49743-3 0  9990",
        "tle_line2": "2 66896  53.1574  36.4894 0001148 103.2878  40.7004 15.74227386  3620"
      },
      "geometry": {
        "type": "Point",
        "coordinates": [
          52.293760434174345,
          21.261038311760874
        ]
      }
    }
  ]
}